     2.11           N: GPS NAV DATA                         RINEX VERSION / TYPE
teqc  2016Apr1      IGN                 20241127 01:12:02UTCPGM / RUN BY / DATE
    18                                                      LEAP SECONDS
    3.1665D-08  1.4901D-08 -1.1921D-07  1.1921D-07          ION ALPHA
    1.5155D+05 -1.8022D+05  0.0000D+00  1.9661D+05          ION BETA
   -5.587935447693D-09-1.243449787580D-14   319488     2342 DELTA-UTC: A0,A1,T,W
                                                            END OF HEADER
23 24 11 26 18  0  0.0 3.713755868380D-04 7.844391802790D-12 0.000000000000D+00
    1.670000000000D+02 1.437500000000D+00 3.856232056120D-09 1.645349771540D+00
    4.842877388000D-08 4.933922318740D-03 9.665265679360D-06 5.153625837330D+03
    2.376000000000D+05-7.078051567080D-08-2.148753239050D-01 6.705522537230D-08
    9.821957755740D-01 2.029687500000D+02-2.895121154790D+00-7.710321165830D-09
    3.296565886630D-10 1.000000000000D+00 2.342000000000D+03 0.000000000000D+00
    2.000000000000D+00 0.000000000000D+00-8.381903171540D-09 4.230000000000D+02
    2.304180000000D+05 4.000000000000D+00
23 24 11 26 18 14 40.0 3.713811747730D-04 7.844391802790D-12 0.000000000000D+00
    1.680000000000D+02-3.125000000000D-01 3.840159958080D-09 1.773648115720D+00
   -1.862645149230D-08 4.933877033180D-03 9.734183549880D-06 5.153626392360D+03
    2.384800000000D+05-7.823109626770D-08-2.148821352520D-01 7.078051567080D-08
    9.821960652310D-01 2.012500000000D+02-2.895061167830D+00-7.708178219420D-09
    3.339424814730D-10 1.000000000000D+00 2.342000000000D+03 0.000000000000D+00
    2.000000000000D+00 0.000000000000D+00-8.381903171540D-09 4.240000000000D+02
    2.313180000000D+05 4.000000000000D+00
27 24 11 26 18  0  0.0-3.457395359870D-05 2.273736754430D-13 0.000000000000D+00
    2.000000000000D+00 1.834375000000D+01 4.736983028640D-09-1.412438746520D+00
    1.030042767520D-06 1.289780251680D-02 2.898275852200D-06 5.153681970600D+03
    2.376000000000D+05 2.868473529820D-07-2.292837594300D+00-1.490116119380D-08
    9.594543088030D-01 3.222812500000D+02 8.006764862920D-01-8.334275727470D-09
   -8.714648714380D-11 1.000000000000D+00 2.342000000000D+03 0.000000000000D+00
    2.000000000000D+00 0.000000000000D+00 1.862645149230D-09 2.580000000000D+02
    2.323380000000D+05 4.000000000000D+00
 9 24 11 26 18  0  0.0 4.612426273525D-04 1.682565198280D-11 0.000000000000D+00
    1.000000000000D+01-5.562500000000D+00 4.951634826895D-09-9.397625273728D-01
   -4.488974809647D-07 3.185845562257D-03 5.695968866348D-06 5.153549871445D+03
    2.376000000000D+05-3.725290298462D-08 8.329281845393D-01 2.793967723846D-08
    9.598688046971D-01 2.749375000000D+02 2.019298681953D+00-8.283559329210D-09
    2.389385241772D-10 1.000000000000D+00 2.342000000000D+03 0.000000000000D+00
    2.000000000000D+00 0.000000000000D+00 4.656612873077D-10 1.000000000000D+01
    2.308080000000D+05 4.000000000000D+00
 5 24 11 26 18  0  0.0-1.941979862750D-04-1.136868377216D-12 0.000000000000D+00
    3.200000000000D+01-6.812500000000D+00 3.942307070056D-09-1.162694610737D+00
   -1.322478055954D-07 5.659526796080D-03 9.717419743538D-06 5.153710723877D+03
    2.376000000000D+05-9.313225746155D-09-2.361834703553D-01 8.195638656616D-08
    9.743204121046D-01 1.983750000000D+02 1.334892143593D+00-7.794610391095D-09
    4.025167664390D-10 1.000000000000D+00 2.342000000000D+03 0.000000000000D+00
    2.000000000000D+00 0.000000000000D+00-1.071020960808D-08 3.200000000000D+01
    2.304180000000D+05 4.000000000000D+00
20 24 11 26 18  0  0.0 3.684014081955D-04-3.410605131648D-13 0.000000000000D+00
    5.300000000000D+01-2.493750000000D+01 4.269820712314D-09-3.098305700526D+00
   -1.242384314537D-06 3.862996352836D-03 1.002289354801D-05 5.153647956848D+03
    2.376000000000D+05 3.725290298462D-09-3.681310124886D-01-6.891787052155D-08
    9.565797961996D-01 1.825937500000D+02-2.438343680630D+00-7.846041104820D-09
    3.264421690552D-10 1.000000000000D+00 2.342000000000D+03 0.000000000000D+00
    2.800000000000D+00 0.000000000000D+00-8.381903171539D-09 5.300000000000D+01
    2.304180000000D+05 4.000000000000D+00
15 24 11 26 18  0  0.0 2.324627712369D-04 4.547473508865D-12 0.000000000000D+00
    1.620000000000D+02 6.250000000000D+00 5.285220150634D-09-2.494690553966D+00
    1.564621925354D-07 1.615853584372D-02 4.755333065987D-06 5.153725715637D+03
    2.376000000000D+05 2.253800630569D-07 7.003442920595D-01 7.078051567078D-08
    9.371292572751D-01 2.675625000000D+02 1.380044318671D+00-8.248915028993D-09
    4.114457097939D-10 1.000000000000D+00 2.342000000000D+03 0.000000000000D+00
    2.800000000000D+00 0.000000000000D+00-1.024454832077D-08 1.620000000000D+02
    2.304180000000D+05 4.000000000000D+00
14 24 11 26 18  0  0.0 5.480176769197D-04 7.958078640513D-12 0.000000000000D+00
    9.800000000000D+01 8.471875000000D+01 4.890203696613D-09 1.150453207760D+00
    4.518777132034D-06 5.027431063354D-03 9.188428521156D-06 5.153706485748D+03
    2.376000000000D+05 8.195638656616D-08 2.974590877638D+00 1.490116119385D-08
    9.449922751785D-01 1.922812500000D+02-2.860280961977D+00-8.306774581933D-09
   -3.571577341961D-13 1.000000000000D+00 2.342000000000D+03 0.000000000000D+00
    2.000000000000D+00 0.000000000000D+00-7.916241884232D-09 8.660000000000D+02
    2.304180000000D+05 4.000000000000D+00
30 24 11 26 18  0  0.0-2.738242037594D-04 7.958078640513D-12 0.000000000000D+00
    5.900000000000D+01-3.487500000000D+01 5.262719213379D-09 1.865768024750D+00
   -1.719221472740D-06 7.163451868109D-03 9.441748261452D-06 5.153775732040D+03
    2.376000000000D+05-2.030283212662D-07 1.903845899578D+00-5.587935447693D-09
    9.351958866853D-01 1.869062500000D+02-2.460226927972D+00-8.362134030733D-09
   -3.396570052205D-10 1.000000000000D+00 2.342000000000D+03 0.000000000000D+00
    2.000000000000D+00 0.000000000000D+00 3.725290298462D-09 5.900000000000D+01
    2.304180000000D+05 4.000000000000D+00
22 24 11 26 18  0  0.0-8.229212835431D-05-2.728484105319D-12 0.000000000000D+00
    7.200000000000D+01 8.190625000000D+01 4.626621288776D-09-1.008828039749D+00
    4.259869456291D-06 1.372673176229D-02 9.031966328621D-06 5.153687007904D+03
    2.376000000000D+05-1.844018697739D-07 3.042815769490D+00-1.676380634308D-07
    9.604202282604D-01 2.075625000000D+02-1.085110921374D+00-8.329989834655D-09
    1.653640309328D-10 1.000000000000D+00 2.342000000000D+03 0.000000000000D+00
    2.000000000000D+00 0.000000000000D+00-1.117587089539D-08 7.200000000000D+01
    2.304480000000D+05 4.000000000000D+00
 8 24 11 26 18  0  0.0 4.238197579980D-04 9.777068044060D-12 0.000000000000D+00
    1.030000000000D+02 2.309375000000D+01 4.943420199010D-09-1.478886826350D+00
    1.205131411550D-06 1.003124902490D-02 2.894550561900D-06 5.153711498260D+03
    2.376000000000D+05 2.980232238770D-08-2.320896112900D+00-1.620501279830D-07
    9.504258089360D-01 3.185625000000D+02 3.817633857720D-01-8.437137154910D-09
    1.214336296270D-11 1.000000000000D+00 2.342000000000D+03 0.000000000000D+00
    2.000000000000D+00 0.000000000000D+00 4.656612873080D-09 1.030000000000D+02
    2.365980000000D+05 4.000000000000D+00
 7 24 11 26 18  0  0.0-1.805694773790D-05 1.932676241270D-12 0.000000000000D+00
    3.200000000000D+01-3.306250000000D+01 4.840558771560D-09 2.029828230860D+00
   -1.901760697360D-06 1.886809722050D-02 1.001730561260D-05 5.153589773180D+03
    2.376000000000D+05-1.545995473860D-07 1.905966077490D+00-4.880130290990D-07
    9.500318114500D-01 1.829062500000D+02-2.092042748650D+00-7.992832933570D-09
   -3.125130174220D-10 1.000000000000D+00 2.342000000000D+03 0.000000000000D+00
    2.000000000000D+00 0.000000000000D+00-1.071020960810D-08 3.200000000000D+01
    2.371920000000D+05 4.000000000000D+00
26 24 11 26 19 59 44.0 1.246994361281D-05-1.341504685115D-11 0.000000000000D+00
    3.100000000000D+01 7.725000000000D+01 5.233789436909D-09 1.400546054936D+00
    4.272907972336D-06 9.631066932343D-03 9.687617421150D-06 5.153742271423D+03
    2.447840000000D+05-9.313225746155D-08 2.867380475620D+00 1.825392246246D-07
    9.304575974308D-01 1.782500000000D+02 5.843722513013D-01-8.438208628117D-09
   -5.285934466102D-11 1.000000000000D+00 2.342000000000D+03 0.000000000000D+00
    2.000000000000D+00 0.000000000000D+00 6.519258022308D-09 3.100000000000D+01
    2.401800000000D+05
15 24 11 26 19 59 44.0 2.324949018657D-04 4.547473508865D-12 0.000000000000D+00
    1.400000000000D+01 1.293750000000D+01 5.294863409457D-09-1.446927653202D+00
    1.110136508942D-06 1.615892408881D-02 5.139037966728D-06 5.153723785400D+03
    2.447840000000D+05 1.490116119385D-07 7.002852033353D-01 3.762543201447D-07
    9.371310595902D-01 2.646562500000D+02 1.380102430166D+00-8.486424922233D-09
    3.228705917133D-10 1.000000000000D+00 2.342000000000D+03 0.000000000000D+00
    2.000000000000D+00 0.000000000000D+00-1.024454832077D-08 1.400000000000D+01
    2.376180000000D+05 4.000000000000D+00
28 24 11 26 20  0  0.0-4.909541457891D-04-1.136868377216D-11 0.000000000000D+00
    2.010000000000D+02-2.584375000000D+01 4.630907181586D-09 1.874996131012D+00
   -1.268461346626D-06 4.734339891002D-04 8.935108780861D-06 5.153766681671D+03
    2.448000000000D+05-2.048909664154D-08 1.874921463673D+00 1.303851604462D-08
    9.610721425924D-01 2.092187500000D+02 1.406943462991D+00-7.969617680851D-09
   -2.975123925853D-10 1.000000000000D+00 2.342000000000D+03 0.000000000000D+00
    2.000000000000D+00 0.000000000000D+00-9.313225746155D-09 2.010000000000D+02
    2.376000000000D+05
